{"type": "FeatureCollection", "features": [ {"type": "Feature", "properties": {"norad_id": 66980, "name": "STARLINK-36086", "group": "last-30-days", "lat": 25.227386726830666, "lon": 136.80003666806795, "alt_km": 341.3580433697816, "timestamp": "2025-12-22T15:43:47.687473+00:00", "meta": {"OBJECT_NAME": "STARLINK-36086", "OBJECT_ID": "2025-288X", "EPOCH": "2025-12-22T06:00:02.000160", "MEAN_MOTION": 15.75028969, "ECCENTRICITY": 0.00015941, "INCLINATION": 43.0005, "RA_OF_ASC_NODE": 108.8885, "ARG_OF_PERICENTER": 258.2904, "MEAN_ANOMALY": 359.0485, "EPHEMERIS_TYPE": 0, "CLASSIFICATION_TYPE": "U", "NORAD_CAT_ID": 66980, "ELEMENT_SET_NO": 999, "REV_AT_EPOCH": 336, "BSTAR": -7.5167708e-05, "MEAN_MOTION_DOT": -0.00012002, "MEAN_MOTION_DDOT": 0}, "tle": {"line1": "1 66980U 25288X   25356.25002315 -.00012002  00000+0 -75168-4 0  9990", "line2": "2 66980  43.0005 108.8885 0001594 258.2904 359.0485 15.75028969  3368"}}, "geometry": {"type": "Point", "coordinates": [136.80003666806795, 25.227386726830666]}}, {"type": "Feature", "properties": {"norad_id": 66981, "name": "STARLINK-36142", "group": "last-30-days", "lat": 26.347150797691086, "lon": 138.52877119019007, "alt_km": 341.1879472545206, "timestamp": "2025-12-22T15:43:47.687483+00:00", "meta": {"OBJECT_NAME": "STARLINK-36142", "OBJECT_ID": "2025-288Y", "EPOCH": "2025-12-22T06:00:02.000160", "MEAN_MOTION": 15.75005692, "ECCENTRICITY": 0.00018343, "INCLINATION": 43.0006, "RA_OF_ASC_NODE": 108.8837, "ARG_OF_PERICENTER": 264.1995, "MEAN_ANOMALY": 355.0613, "EPHEMERIS_TYPE": 0, "CLASSIFICATION_TYPE": "U", "NORAD_CAT_ID": 66981, "ELEMENT_SET_NO": 999, "REV_AT_EPOCH": 336, "BSTAR": 0.00023768762, "MEAN_MOTION_DOT": 0.00036137, "MEAN_MOTION_DDOT": 0}, "tle": {"line1": "1 66981U 25288Y   25356.25002315  .00036137  00000+0  23769-3 0  9993", "line2": "2 66981  43.0006 108.8837 0001834 264.1995 355.0613 15.75005692  3367"}}, "geometry": {"type": "Point", "coordinates": [138.52877119019007, 26.347150797691086]}}, {"type": "Feature", "properties": {"norad_id": 66982, "name": "STARLINK-36113", "group": "last-30-days", "lat": 27.444265515483323, "lon": 140.2885109546188, "alt_km": 340.96934157613487, "timestamp": "2025-12-22T15:43:47.687494+00:00", "meta": {"OBJECT_NAME": "STARLINK-36113", "OBJECT_ID": "2025-288Z", "EPOCH": "2025-12-22T06:00:02.000160", "MEAN_MOTION": 15.7503126, "ECCENTRICITY": 0.00015643, "INCLINATION": 43.0005, "RA_OF_ASC_NODE": 108.8784, "ARG_OF_PERICENTER": 263.4982, "MEAN_ANOMALY": 357.6755, "EPHEMERIS_TYPE": 0, "CLASSIFICATION_TYPE": "U", "NORAD_CAT_ID": 66982, "ELEMENT_SET_NO": 999, "REV_AT_EPOCH": 336, "BSTAR": -0.00010216447, "MEAN_MOTION_DOT": -0.00016135, "MEAN_MOTION_DDOT": 0}, "tle": {"line1": "1 66982U 25288Z   25356.25002315 -.00016135  00000+0 -10216-3 0  9995", "line2": "2 66982  43.0005 108.8784 0001564 263.4982 357.6755 15.75031260  3361"}}, "geometry": {"type": "Point", "coordinates": [140.2885109546188, 27.444265515483323]}}, {"type": "Feature", "properties": {"norad_id": 66983, "name": "STARLINK-36145", "group": "last-30-days", "lat": 29.5670463352885, "lon": 143.91264207661513, "alt_km": 340.58920129265607, "timestamp": "2025-12-22T15:43:47.687505+00:00", "meta": {"OBJECT_NAME": "STARLINK-36145", "OBJECT_ID": "2025-288AA", "EPOCH": "2025-12-22T06:00:02.000160", "MEAN_MOTION": 15.75010575, "ECCENTRICITY": 0.00013985, "INCLINATION": 43.0005, "RA_OF_ASC_NODE": 108.8692, "ARG_OF_PERICENTER": 260.9976, "MEAN_ANOMALY": 4.0186, "EPHEMERIS_TYPE": 0, "CLASSIFICATION_TYPE": "U", "NORAD_CAT_ID": 66983, "ELEMENT_SET_NO": 999, "REV_AT_EPOCH": 336, "BSTAR": 0.00011942472, "MEAN_MOTION_DOT": 0.00017883, "MEAN_MOTION_DDOT": 0}, "tle": {"line1": "1 66983U 25288AA  25356.25002315  .00017883  00000+0  11942-3 0  9992", "line2": "2 66983  43.0005 108.8692 0001398 260.9976   4.0186 15.75010575  3367"}}, "geometry": {"type": "Point", "coordinates": [143.91264207661513, 29.5670463352885]}}, {"type": "Feature", "properties": {"norad_id": 66984, "name": "STARLINK-35591", "group": "last-30-days", "lat": 28.51564835398872, "lon": 142.07831298306107, "alt_km": 340.70603252469937, "timestamp": "2025-12-22T15:43:47.687515+00:00", "meta": {"OBJECT_NAME": "STARLINK-35591", "OBJECT_ID": "2025-288AB", "EPOCH": "2025-12-22T06:00:02.000160", "MEAN_MOTION": 15.75026285, "ECCENTRICITY": 0.00011434, "INCLINATION": 43.0005, "RA_OF_ASC_NODE": 108.8734, "ARG_OF_PERICENTER": 250.2603, "MEAN_ANOMALY": 12.8333, "EPHEMERIS_TYPE": 0, "CLASSIFICATION_TYPE": "U", "NORAD_CAT_ID": 66984, "ELEMENT_SET_NO": 999, "REV_AT_EPOCH": 336, "BSTAR": -5.1479396e-05, "MEAN_MOTION_DOT": -8.372e-05, "MEAN_MOTION_DDOT": 0}, "tle": {"line1": "1 66984U 25288AB  25356.25002315 -.00008372  00000+0 -51479-4 0  9998", "line2": "2 66984  43.0005 108.8734 0001143 250.2603  12.8333 15.75026285  3368"}}, "geometry": {"type": "Point", "coordinates": [142.07831298306107, 28.51564835398872]}}, {"type": "Feature", "properties": {"norad_id": 66985, "name": "STARLINK-36103", "group": "last-30-days", "lat": 30.596217277813317, "lon": 145.79110051492216, "alt_km": 340.57991839155875, "timestamp": "2025-12-22T15:43:47.687524+00:00", "meta": {"OBJECT_NAME": "STARLINK-36103", "OBJECT_ID": "2025-288AC", "EPOCH": "2025-12-22T06:00:02.000160", "MEAN_MOTION": 15.75027512, "ECCENTRICITY": 0.00017876, "INCLINATION": 43.0005, "RA_OF_ASC_NODE": 108.8642, "ARG_OF_PERICENTER": 266.459, "MEAN_ANOMALY": 0.4653, "EPHEMERIS_TYPE": 0, "CLASSIFICATION_TYPE": "U", "NORAD_CAT_ID": 66985, "ELEMENT_SET_NO": 999, "REV_AT_EPOCH": 336, "BSTAR": -4.267636e-06, "MEAN_MOTION_DOT": -1.133e-05, "MEAN_MOTION_DDOT": 0}, "tle": {"line1": "1 66985U 25288AC  25356.25002315 -.00001133  00000+0 -42676-5 0  9997", "line2": "2 66985  43.0005 108.8642 0001787 266.4590   0.4653 15.75027512  3367"}}, "geometry": {"type": "Point", "coordinates": [145.79110051492216, 30.596217277813317]}}, {"type": "Feature", "properties": {"norad_id": 66986, "name": "STARLINK-36135", "group": "last-30-days", "lat": 31.590748549948668, "lon": 147.69525952871047, "alt_km": 340.4457674381383, "timestamp": "2025-12-22T15:43:47.687534+00:00", "meta": {"OBJECT_NAME": "STARLINK-36135", "OBJECT_ID": "2025-288AD", "EPOCH": "2025-12-22T06:00:02.000160", "MEAN_MOTION": 15.75012901, "ECCENTRICITY": 0.00017477, "INCLINATION": 43.0005, "RA_OF_ASC_NODE": 108.8586, "ARG_OF_PERICENTER": 266.1146, "MEAN_ANOMALY": 2.7379, "EPHEMERIS_TYPE": 0, "CLASSIFICATION_TYPE": "U", "NORAD_CAT_ID": 66986, "ELEMENT_SET_NO": 999, "REV_AT_EPOCH": 336, "BSTAR": 6.063815e-05, "MEAN_MOTION_DOT": 8.836e-05, "MEAN_MOTION_DDOT": 0}, "tle": {"line1": "1 66986U 25288AD  25356.25002315  .00008836  00000+0  60638-4 0  9990", "line2": "2 66986  43.0005 108.8586 0001747 266.1146   2.7379 15.75012901  3361"}}, "geometry": {"type": "Point", "coordinates": [147.69525952871047, 31.590748549948668]}}, {"type": "Feature", "properties": {"norad_id": 66987, "name": "STARLINK-36147", "group": "last-30-days", "lat": 32.55681807066284, "lon": 149.64224232403888, "alt_km": 340.1074170797119, "timestamp": "2025-12-22T15:43:47.687544+00:00", "meta": {"OBJECT_NAME": "STARLINK-36147", "OBJECT_ID": "2025-288AE", "EPOCH": "2025-12-22T06:00:02.000160", "MEAN_MOTION": 15.74990567, "ECCENTRICITY": 0.0001378, "INCLINATION": 43.0006, "RA_OF_ASC_NODE": 108.8543, "ARG_OF_PERICENTER": 261.4666, "MEAN_ANOMALY": 9.3074, "EPHEMERIS_TYPE": 0, "CLASSIFICATION_TYPE": "U", "NORAD_CAT_ID": 66987, "ELEMENT_SET_NO": 999, "REV_AT_EPOCH": 336, "BSTAR": 0.00036995832, "MEAN_MOTION_DOT": 0.00056612, "MEAN_MOTION_DDOT": 0}, "tle": {"line1": "1 66987U 25288AE  25356.25002315  .00056612  00000+0  36996-3 0  9995", "line2": "2 66987  43.0006 108.8543 0001378 261.4666   9.3074 15.74990567  3368"}}, "geometry": {"type": "Point", "coordinates": [149.64224232403888, 32.55681807066284]}}, {"type": "Feature", "properties": {"norad_id": 66988, "name": "YAOGAN-47", "group": "last-30-days", "lat": -26.918366133382072, "lon": 65.65007474398928, "alt_km": 501.9992478409131, "timestamp": "2025-12-22T15:43:47.687553+00:00", "meta": {"OBJECT_NAME": "YAOGAN-47", "OBJECT_ID": "2025-289A", "EPOCH": "2025-12-20T02:21:43.539840", "MEAN_MOTION": 15.23243112, "ECCENTRICITY": 6.467e-05, "INCLINATION": 97.5265, "RA_OF_ASC_NODE": 59.2376, "ARG_OF_PERICENTER": 91.4531, "MEAN_ANOMALY": 268.678, "EPHEMERIS_TYPE": 0, "CLASSIFICATION_TYPE": "U", "NORAD_CAT_ID": 66988, "ELEMENT_SET_NO": 999, "REV_AT_EPOCH": 166, "BSTAR": 0.00010945697, "MEAN_MOTION_DOT": 2.52e-05, "MEAN_MOTION_DDOT": 0}, "tle": {"line1": "1 66988U 25289A   25354.09842060  .00002520  00000+0  10946-3 0  9992", "line2": "2 66988  97.5265  59.2376 0000646  91.4531 268.6780 15.23243112  1668"}}, "geometry": {"type": "Point", "coordinates": [65.65007474398928, -26.918366133382072]}}, {"type": "Feature", "properties": {"norad_id": 66989, "name": "CZ-4B R/B", "group": "last-30-days", "lat": -46.50839462232748, "lon": 70.73573792187939, "alt_km": 273.6906041943639, "timestamp": "2025-12-22T15:43:47.687566+00:00", "meta": {"OBJECT_NAME": "CZ-4B R/B", "OBJECT_ID": "2025-289B", "EPOCH": "2025-12-22T06:44:37.847904", "MEAN_MOTION": 15.69465267, "ECCENTRICITY": 0.01418541, "INCLINATION": 97.5241, "RA_OF_ASC_NODE": 62.3244, "ARG_OF_PERICENTER": 326.7754, "MEAN_ANOMALY": 32.4658, "EPHEMERIS_TYPE": 0, "CLASSIFICATION_TYPE": "U", "NORAD_CAT_ID": 66989, "ELEMENT_SET_NO": 999, "REV_AT_EPOCH": 206, "BSTAR": 0.00063134619, "MEAN_MOTION_DOT": 0.0013319, "MEAN_MOTION_DDOT": 7.377318e-06}, "tle": {"line1": "1 66989U 25289B   25356.28099361  .00133190  73773-5  63135-3 0  9993", "line2": "2 66989  97.5241  62.3244 0141854 326.7754  32.4658 15.69465267  2063"}}, "geometry": {"type": "Point", "coordinates": [70.73573792187939, -46.50839462232748]}}]}